{
    "links": {
        "self": "http://www.neowsapp.com/rest/v1/neo/3781407?api_key=iIulBulltgU6a56xZRHN4H3l9WmuAYTsLGpBGhQ2"
    },
    "id": "3781407",
    "neo_reference_id": "3781407",
    "name": "(2017 RT2)",
    "designation": "2017 RT2",
    "nasa_jpl_url": "http://ssd.jpl.nasa.gov/sbdb.cgi?sstr=3781407",
    "absolute_magnitude_h": 24.5,
    "estimated_diameter": {
        "kilometers": {
            "estimated_diameter_min": 0.0334622374,
            "estimated_diameter_max": 0.0748238376
        },
        "meters": {
            "estimated_diameter_min": 33.4622374455,
            "estimated_diameter_max": 74.8238376074
        },
        "miles": {
            "estimated_diameter_min": 0.0207924639,
            "estimated_diameter_max": 0.0464933628
        },
        "feet": {
            "estimated_diameter_min": 109.7842471007,
            "estimated_diameter_max": 245.4850393757
        }
    },
    "is_potentially_hazardous_asteroid": false,
    "close_approach_data": [
        {
            "close_approach_date": "2017-08-11",
            "close_approach_date_full": "2017-Aug-11 07:22",
            "epoch_date_close_approach": 1502436120000,
            "relative_velocity": {
                "kilometers_per_second": "7.4817480768",
                "kilometers_per_hour": "26934.2930763807",
                "miles_per_hour": "16735.9222729322"
            },
            "miss_distance": {
                "astronomical": "0.0871190231",
                "lunar": "33.8892999859",
                "kilometers": "13032820.292240797",
                "miles": "8098219.0101931186"
            },
            "orbiting_body": "Earth"
        }
    ],
    "orbital_data": {
        "orbit_id": "1",
        "orbit_determination_date": "2017-09-17 09:12:08",
        "first_observation_date": "2017-09-14",
        "last_observation_date": "2017-09-17",
        "data_arc_in_days": 3,
        "observations_used": 9,
        "orbit_uncertainty": "9",
        "minimum_orbit_intersection": ".0613531",
        "jupiter_tisserand_invariant": "3.633",
        "epoch_osculation": "2458011.5",
        "eccentricity": ".4822999880103564",
        "semi_major_axis": "2.053391460554519",
        "inclination": "3.108732931742234",
        "ascending_node_longitude": "345.3740076301428",
        "orbital_period": "1074.746536566327",
        "perihelion_distance": "1.063040783748506",
        "perihelion_argument": "314.1964949817219",
        "aphelion_distance": "3.043742137360532",
        "perihelion_time": "2457961.997599964144",
        "mean_anomaly": "16.5814574940092",
        "mean_motion": ".3349626984145976",
        "equinox": "J2000",
        "orbit_class": {
            "orbit_class_type": "AMO",
            "orbit_class_description": "Near-Earth asteroid orbits similar to that of 1221 Amor",
            "orbit_class_range": "1.017 AU < q (perihelion) < 1.3 AU"
        }
    },
    "is_sentry_object": false
}